[
    {
        "model": "gondorapi.address",
        "pk": "23a3efc91e0a4bc48a8b1b99c0d1d9be",
        "fields": {
            "line1": "123 Maple Street",
            "line2": null,
            "city": "Gallatin",
            "state_code": "TN",
            "postal_code": "37066"
        }
    },
    {
        "model": "gondorapi.address",
        "pk": "454d28945a5d43c49d99e4e7bfef2f98",
        "fields": {
            "line1": "456 Oak Avenue",
            "line2": "Apt 2B",
            "city": "Gallatin",
            "state_code": "TN",
            "postal_code": "37066"
        }
    },
    {
        "model": "gondorapi.address",
        "pk": "ad99819e512742ffa1fee04dcbfc3af1",
        "fields": {
            "line1": "789 Cedar Lane",
            "line2": null,
            "city": "Hendersonville",
            "state_code": "TN",
            "postal_code": "37075"
        }
    },
    {
        "model": "gondorapi.address",
        "pk": "fb6e6f970f764b4e94cbe2b68bcfb02d",
        "fields": {
            "line1": "321 Pine Road",
            "line2": "Suite 5",
            "city": "Hendersonville",
            "state_code": "TN",
            "postal_code": "37075"
        }
    },
    {
        "model": "gondorapi.address",
        "pk": "9b2d5d4109374d6ebb8e636bf83ab13f",
        "fields": {
            "line1": "234 Birch Drive",
            "line2": null,
            "city": "Gallatin",
            "state_code": "TN",
            "postal_code": "37066"
        }
    },
    {
        "model": "gondorapi.address",
        "pk": "493d24bbe62d46f18a2b88f5a4cf2059",
        "fields": {
            "line1": "567 Sycamore Street",
            "line2": "Apt 1A",
            "city": "Gallatin",
            "state_code": "TN",
            "postal_code": "37066"
        }
    },
    {
        "model": "gondorapi.address",
        "pk": "b48b11b1f030472f97af92978a1422f4",
        "fields": {
            "line1": "890 Elm Boulevard",
            "line2": null,
            "city": "Hendersonville",
            "state_code": "TN",
            "postal_code": "37075"
        }
    },
    {
        "model": "gondorapi.address",
        "pk": "60d7ec5851974a97a0dacc4b5c5db408",
        "fields": {
            "line1": "765 Willow Way",
            "line2": "Apt 4C",
            "city": "Hendersonville",
            "state_code": "TN",
            "postal_code": "37075"
        }
    },
    {
        "model": "gondorapi.address",
        "pk": "913236cd7e68438d826f660a15c66085",
        "fields": {
            "line1": "876 Fir Street",
            "line2": null,
            "city": "Gallatin",
            "state_code": "TN",
            "postal_code": "37066"
        }
    },
    {
        "model": "gondorapi.address",
        "pk": "a53e8e3454fe439d88afcad97a801e34",
        "fields": {
            "line1": "654 Poplar Avenue",
            "line2": "Suite 8",
            "city": "Gallatin",
            "state_code": "TN",
            "postal_code": "37066"
        }
    },
    {
        "model": "gondorapi.address",
        "pk": "cc0d77c85b164e539d9d290e2f2c1fc7",
        "fields": {
            "line1": "901 Redwood Street",
            "line2": null,
            "city": "Hendersonville",
            "state_code": "TN",
            "postal_code": "37075"
        }
    },
    {
        "model": "gondorapi.address",
        "pk": "7a003fe6fd74482f963bd56f24d8a23b",
        "fields": {
            "line1": "432 Dogwood Court",
            "line2": "Apt 5D",
            "city": "Hendersonville",
            "state_code": "TN",
            "postal_code": "37075"
        }
    },
    {
        "model": "gondorapi.address",
        "pk": "89b92a6e9cf7464ba8b7928057601a2b",
        "fields": {
            "line1": "129 Pinecone Place",
            "line2": null,
            "city": "Gallatin",
            "state_code": "TN",
            "postal_code": "37066"
        }
    },
    {
        "model": "gondorapi.address",
        "pk": "e93b97ed5f0745f1b71213f4a6047bb3",
        "fields": {
            "line1": "963 Maplewood Lane",
            "line2": "Suite 7",
            "city": "Gallatin",
            "state_code": "TN",
            "postal_code": "37066"
        }
    },
    {
        "model": "gondorapi.address",
        "pk": "d093fb77d3784c36a90c1b0c12451fa5",
        "fields": {
            "line1": "321 Forest View Drive",
            "line2": null,
            "city": "Hendersonville",
            "state_code": "TN",
            "postal_code": "37075"
        }
    }
]
